[{"OBJECT_NAME":"HERMES-3","OBJECT_ID":"2025-052BR","EPOCH":"2026-03-09T22:30:01.073952","MEAN_MOTION":15.30039786,"ECCENTRICITY":0.00079928,"INCLINATION":97.3987,"RA_OF_ASC_NODE":324.6131,"ARG_OF_PERICENTER":112.9583,"MEAN_ANOMALY":247.2502,"EPHEMERIS_TYPE":0,"CLASSIFICATION_TYPE":"U","NORAD_CAT_ID":63835,"ELEMENT_SET_NO":999,"REV_AT_EPOCH":5486,"BSTAR":0.0006995793,"MEAN_MOTION_DOT":0.00020316,"MEAN_MOTION_DDOT":0},{"OBJECT_NAME":"STARLINK-35801","OBJECT_ID":"2025-247A","EPOCH":"2026-03-09T14:22:20.780832","MEAN_MOTION":15.30184206,"ECCENTRICITY":0.0001055,"INCLINATION":53.1592,"RA_OF_ASC_NODE":191.5943,"ARG_OF_PERICENTER":47.6791,"MEAN_ANOMALY":312.4299,"EPHEMERIS_TYPE":0,"CLASSIFICATION_TYPE":"U","NORAD_CAT_ID":66265,"ELEMENT_SET_NO":999,"REV_AT_EPOCH":2102,"BSTAR":0.00065932,"MEAN_MOTION_DOT":0.00019209,"MEAN_MOTION_DDOT":0}]
